ORBCOMM-X               
1 21576U 91050C   26012.94218482  .00000252  00000+0  87342-4 0  9991
2 21576  98.3184  80.0038 0002423 271.4358  88.6555 14.43465230812376
ORBCOMM FM01            
1 23545U 95017A   26012.96692345  .00004557  00000+0  43869-3 0  9999
2 23545  69.9616 269.7641 0004985 313.2223  46.8517 14.93640816643797
ORBCOMM FM02            
1 23546U 95017B   26012.87323048  .00006550  00000+0  59934-3 0  9996
2 23546  69.9634 288.4285 0006234 322.1743  37.8975 14.95402341643457
ORBCOMM FM08            
1 25112U 97084A   26012.90369303  .00001237  00000+0  37829-3 0  9997
2 25112  45.0143  80.4803 0008294 236.8342 123.1715 14.46732022471737
ORBCOMM FM10            
1 25113U 97084B   26012.91823416  .00001130  00000+0  35102-3 0  9993
2 25113  45.0154  83.1864 0006277 211.8225 148.2248 14.46465350646874
ORBCOMM FM11            
1 25114U 97084C   26012.89069369  .00001100  00000+0  34466-3 0  9999
2 25114  45.0140  84.3402 0007091 210.9797 149.0637 14.46213759471826
ORBCOMM FM12            
1 25115U 97084D   26012.91925487  .00001108  00000+0  34672-3 0  9992
2 25115  45.0146  83.9314 0006153 211.1476 148.9011 14.46235278471627
ORBCOMM FM09            
1 25116U 97084E   26012.90284984  .00001096  00000+0  34454-3 0  9996
2 25116  45.0151  85.1779 0007014 198.8838 161.1755 14.46069352471825
